[Satellite]
VERSION=1.1
NAME=STARLINK-5198
NICKNAME=STARLINK-5198
TLE1=1 54099U 22136BA  22321.58334491  .00006757  00000+0  52528-4 0  9998
TLE2=2 54099  53.2154   9.4331 0003811   6.3189 338.7925 15.73202606  1302
STATUS=0
